<?xml version="1.0" encoding="UTF-8"?>
<ndm xmlns:xsi="http://www.w3.org/2001/XMLSchema-instance" xsi:noNamespaceSchemaLocation="https://sanaregistry.org/r/ndmxml_unqualified/ndmxml-2.0.0-master-2.0.xsd">
<omm id="CCSDS_OMM_VERS" version="2.0">
<header><CREATION_DATE/><ORIGINATOR/></header><body><segment><metadata><OBJECT_NAME>ORBCOMM FM24</OBJECT_NAME><OBJECT_ID>1998-053D</OBJECT_ID><CENTER_NAME>EARTH</CENTER_NAME><REF_FRAME>TEME</REF_FRAME><TIME_SYSTEM>UTC</TIME_SYSTEM><MEAN_ELEMENT_THEORY>SGP4</MEAN_ELEMENT_THEORY></metadata><data><meanElements><EPOCH>2026-01-24T22:25:04.842048</EPOCH><MEAN_MOTION>14.38796742</MEAN_MOTION><ECCENTRICITY>.0002779</ECCENTRICITY><INCLINATION>45.0078</INCLINATION><RA_OF_ASC_NODE>297.1733</RA_OF_ASC_NODE><ARG_OF_PERICENTER>291.9780</ARG_OF_PERICENTER><MEAN_ANOMALY>68.0773</MEAN_ANOMALY></meanElements><tleParameters><EPHEMERIS_TYPE>0</EPHEMERIS_TYPE><CLASSIFICATION_TYPE>U</CLASSIFICATION_TYPE><NORAD_CAT_ID>25478</NORAD_CAT_ID><ELEMENT_SET_NO>999</ELEMENT_SET_NO><REV_AT_EPOCH>42937</REV_AT_EPOCH><BSTAR>.67842E-3</BSTAR><MEAN_MOTION_DOT>.1963E-4</MEAN_MOTION_DOT><MEAN_MOTION_DDOT>0</MEAN_MOTION_DDOT></tleParameters></data></segment></body></omm>
<omm id="CCSDS_OMM_VERS" version="2.0">
<header><CREATION_DATE/><ORIGINATOR/></header><body><segment><metadata><OBJECT_NAME>ORBCOMM FM25</OBJECT_NAME><OBJECT_ID>1998-053E</OBJECT_ID><CENTER_NAME>EARTH</CENTER_NAME><REF_FRAME>TEME</REF_FRAME><TIME_SYSTEM>UTC</TIME_SYSTEM><MEAN_ELEMENT_THEORY>SGP4</MEAN_ELEMENT_THEORY></metadata><data><meanElements><EPOCH>2026-01-25T01:10:28.618176</EPOCH><MEAN_MOTION>14.38766623</MEAN_MOTION><ECCENTRICITY>.0005117</ECCENTRICITY><INCLINATION>45.0067</INCLINATION><RA_OF_ASC_NODE>294.9343</RA_OF_ASC_NODE><ARG_OF_PERICENTER>291.7863</ARG_OF_PERICENTER><MEAN_ANOMALY>68.2441</MEAN_ANOMALY></meanElements><tleParameters><EPHEMERIS_TYPE>0</EPHEMERIS_TYPE><CLASSIFICATION_TYPE>U</CLASSIFICATION_TYPE><NORAD_CAT_ID>25479</NORAD_CAT_ID><ELEMENT_SET_NO>999</ELEMENT_SET_NO><REV_AT_EPOCH>42968</REV_AT_EPOCH><BSTAR>.66746E-3</BSTAR><MEAN_MOTION_DOT>.1928E-4</MEAN_MOTION_DOT><MEAN_MOTION_DDOT>0</MEAN_MOTION_DDOT></tleParameters></data></segment></body></omm>
<omm id="CCSDS_OMM_VERS" version="2.0">
<header><CREATION_DATE/><ORIGINATOR/></header><body><segment><metadata><OBJECT_NAME>ORBCOMM FM26</OBJECT_NAME><OBJECT_ID>1998-053F</OBJECT_ID><CENTER_NAME>EARTH</CENTER_NAME><REF_FRAME>TEME</REF_FRAME><TIME_SYSTEM>UTC</TIME_SYSTEM><MEAN_ELEMENT_THEORY>SGP4</MEAN_ELEMENT_THEORY></metadata><data><meanElements><EPOCH>2026-01-24T22:26:30.560352</EPOCH><MEAN_MOTION>14.37715016</MEAN_MOTION><ECCENTRICITY>.0007154</ECCENTRICITY><INCLINATION>45.0065</INCLINATION><RA_OF_ASC_NODE>293.6105</RA_OF_ASC_NODE><ARG_OF_PERICENTER>302.2999</ARG_OF_PERICENTER><MEAN_ANOMALY>57.7156</MEAN_ANOMALY></meanElements><tleParameters><EPHEMERIS_TYPE>0</EPHEMERIS_TYPE><CLASSIFICATION_TYPE>U</CLASSIFICATION_TYPE><NORAD_CAT_ID>25480</NORAD_CAT_ID><ELEMENT_SET_NO>999</ELEMENT_SET_NO><REV_AT_EPOCH>42955</REV_AT_EPOCH><BSTAR>.59701E-3</BSTAR><MEAN_MOTION_DOT>.1671E-4</MEAN_MOTION_DOT><MEAN_MOTION_DDOT>0</MEAN_MOTION_DDOT></tleParameters></data></segment></body></omm>
<omm id="CCSDS_OMM_VERS" version="2.0">
<header><CREATION_DATE/><ORIGINATOR/></header><body><segment><metadata><OBJECT_NAME>ORBCOMM FM27</OBJECT_NAME><OBJECT_ID>1998-053G</OBJECT_ID><CENTER_NAME>EARTH</CENTER_NAME><REF_FRAME>TEME</REF_FRAME><TIME_SYSTEM>UTC</TIME_SYSTEM><MEAN_ELEMENT_THEORY>SGP4</MEAN_ELEMENT_THEORY></metadata><data><meanElements><EPOCH>2026-01-25T00:45:20.407680</EPOCH><MEAN_MOTION>14.38804037</MEAN_MOTION><ECCENTRICITY>.0001749</ECCENTRICITY><INCLINATION>45.0054</INCLINATION><RA_OF_ASC_NODE>295.1329</RA_OF_ASC_NODE><ARG_OF_PERICENTER>321.7286</ARG_OF_PERICENTER><MEAN_ANOMALY>38.3438</MEAN_ANOMALY></meanElements><tleParameters><EPHEMERIS_TYPE>0</EPHEMERIS_TYPE><CLASSIFICATION_TYPE>U</CLASSIFICATION_TYPE><NORAD_CAT_ID>25481</NORAD_CAT_ID><ELEMENT_SET_NO>999</ELEMENT_SET_NO><REV_AT_EPOCH>42961</REV_AT_EPOCH><BSTAR>.66303E-3</BSTAR><MEAN_MOTION_DOT>.1915E-4</MEAN_MOTION_DOT><MEAN_MOTION_DDOT>0</MEAN_MOTION_DDOT></tleParameters></data></segment></body></omm>
<omm id="CCSDS_OMM_VERS" version="2.0">
<header><CREATION_DATE/><ORIGINATOR/></header><body><segment><metadata><OBJECT_NAME>ORBCOMM FM28</OBJECT_NAME><OBJECT_ID>1998-053H</OBJECT_ID><CENTER_NAME>EARTH</CENTER_NAME><REF_FRAME>TEME</REF_FRAME><TIME_SYSTEM>UTC</TIME_SYSTEM><MEAN_ELEMENT_THEORY>SGP4</MEAN_ELEMENT_THEORY></metadata><data><meanElements><EPOCH>2026-01-24T23:25:18.776064</EPOCH><MEAN_MOTION>14.38911698</MEAN_MOTION><ECCENTRICITY>.0004371</ECCENTRICITY><INCLINATION>45.0033</INCLINATION><RA_OF_ASC_NODE>232.6342</RA_OF_ASC_NODE><ARG_OF_PERICENTER>340.3664</ARG_OF_PERICENTER><MEAN_ANOMALY>19.7015</MEAN_ANOMALY></meanElements><tleParameters><EPHEMERIS_TYPE>0</EPHEMERIS_TYPE><CLASSIFICATION_TYPE>U</CLASSIFICATION_TYPE><NORAD_CAT_ID>25482</NORAD_CAT_ID><ELEMENT_SET_NO>999</ELEMENT_SET_NO><REV_AT_EPOCH>43029</REV_AT_EPOCH><BSTAR>.59076E-3</BSTAR><MEAN_MOTION_DOT>.1695E-4</MEAN_MOTION_DOT><MEAN_MOTION_DDOT>0</MEAN_MOTION_DDOT></tleParameters></data></segment></body></omm>
<omm id="CCSDS_OMM_VERS" version="2.0">
<header><CREATION_DATE/><ORIGINATOR/></header><body><segment><metadata><OBJECT_NAME>ORBCOMM FM30</OBJECT_NAME><OBJECT_ID>1999-065A</OBJECT_ID><CENTER_NAME>EARTH</CENTER_NAME><REF_FRAME>TEME</REF_FRAME><TIME_SYSTEM>UTC</TIME_SYSTEM><MEAN_ELEMENT_THEORY>SGP4</MEAN_ELEMENT_THEORY></metadata><data><meanElements><EPOCH>2026-01-24T14:55:31.853280</EPOCH><MEAN_MOTION>14.37872088</MEAN_MOTION><ECCENTRICITY>.00045638</ECCENTRICITY><INCLINATION>45.0301</INCLINATION><RA_OF_ASC_NODE>121.1553</RA_OF_ASC_NODE><ARG_OF_PERICENTER>37.4430</ARG_OF_PERICENTER><MEAN_ANOMALY>322.6736</MEAN_ANOMALY></meanElements><tleParameters><EPHEMERIS_TYPE>0</EPHEMERIS_TYPE><CLASSIFICATION_TYPE>U</CLASSIFICATION_TYPE><NORAD_CAT_ID>25980</NORAD_CAT_ID><ELEMENT_SET_NO>999</ELEMENT_SET_NO><REV_AT_EPOCH>36631</REV_AT_EPOCH><BSTAR>.56598195E-3</BSTAR><MEAN_MOTION_DOT>.1581E-4</MEAN_MOTION_DOT><MEAN_MOTION_DDOT>0</MEAN_MOTION_DDOT></tleParameters></data></segment></body></omm>
<omm id="CCSDS_OMM_VERS" version="2.0">
<header><CREATION_DATE/><ORIGINATOR/></header><body><segment><metadata><OBJECT_NAME>ORBCOMM FM31</OBJECT_NAME><OBJECT_ID>1999-065B</OBJECT_ID><CENTER_NAME>EARTH</CENTER_NAME><REF_FRAME>TEME</REF_FRAME><TIME_SYSTEM>UTC</TIME_SYSTEM><MEAN_ELEMENT_THEORY>SGP4</MEAN_ELEMENT_THEORY></metadata><data><meanElements><EPOCH>2026-01-24T16:12:16.220736</EPOCH><MEAN_MOTION>14.37794731</MEAN_MOTION><ECCENTRICITY>.00022078</ECCENTRICITY><INCLINATION>45.0226</INCLINATION><RA_OF_ASC_NODE>114.3498</RA_OF_ASC_NODE><ARG_OF_PERICENTER>80.9030</ARG_OF_PERICENTER><MEAN_ANOMALY>279.2068</MEAN_ANOMALY></meanElements><tleParameters><EPHEMERIS_TYPE>0</EPHEMERIS_TYPE><CLASSIFICATION_TYPE>U</CLASSIFICATION_TYPE><NORAD_CAT_ID>25981</NORAD_CAT_ID><ELEMENT_SET_NO>999</ELEMENT_SET_NO><REV_AT_EPOCH>36587</REV_AT_EPOCH><BSTAR>.5824205E-3</BSTAR><MEAN_MOTION_DOT>.1628E-4</MEAN_MOTION_DOT><MEAN_MOTION_DDOT>0</MEAN_MOTION_DDOT></tleParameters></data></segment></body></omm>
<omm id="CCSDS_OMM_VERS" version="2.0">
<header><CREATION_DATE/><ORIGINATOR/></header><body><segment><metadata><OBJECT_NAME>ORBCOMM FM32</OBJECT_NAME><OBJECT_ID>1999-065C</OBJECT_ID><CENTER_NAME>EARTH</CENTER_NAME><REF_FRAME>TEME</REF_FRAME><TIME_SYSTEM>UTC</TIME_SYSTEM><MEAN_ELEMENT_THEORY>SGP4</MEAN_ELEMENT_THEORY></metadata><data><meanElements><EPOCH>2026-01-24T17:29:13.418592</EPOCH><MEAN_MOTION>14.36860535</MEAN_MOTION><ECCENTRICITY>.00045988</ECCENTRICITY><INCLINATION>45.0140</INCLINATION><RA_OF_ASC_NODE>132.1530</RA_OF_ASC_NODE><ARG_OF_PERICENTER>69.4400</ARG_OF_PERICENTER><MEAN_ANOMALY>290.6941</MEAN_ANOMALY></meanElements><tleParameters><EPHEMERIS_TYPE>0</EPHEMERIS_TYPE><CLASSIFICATION_TYPE>U</CLASSIFICATION_TYPE><NORAD_CAT_ID>25982</NORAD_CAT_ID><ELEMENT_SET_NO>999</ELEMENT_SET_NO><REV_AT_EPOCH>36645</REV_AT_EPOCH><BSTAR>.59893008E-3</BSTAR><MEAN_MOTION_DOT>.1645E-4</MEAN_MOTION_DOT><MEAN_MOTION_DDOT>0</MEAN_MOTION_DDOT></tleParameters></data></segment></body></omm>

</ndm>
