ORBCOMM FM24            
1 25478U 98053D   26024.93408382  .00001963  00000+0  67842-3 0  9990
2 25478  45.0078 297.1733 0002779 291.9780  68.0773 14.38796742429372
ORBCOMM FM25            
1 25479U 98053E   26025.04894234  .00001928  00000+0  66746-3 0  9992
2 25479  45.0067 294.9343 0005117 291.7863  68.2441 14.38766623429685
ORBCOMM FM26            
1 25480U 98053F   26024.93507593  .00001671  00000+0  59701-3 0  9998
2 25480  45.0065 293.6105 0007154 302.2999  57.7156 14.37715016429559
ORBCOMM FM27            
1 25481U 98053G   26025.03148620  .00001915  00000+0  66303-3 0  9990
2 25481  45.0054 295.1329 0001749 321.7286  38.3438 14.38804037429610
ORBCOMM FM28            
1 25482U 98053H   26024.97591176  .00001695  00000+0  59076-3 0  9995
2 25482  45.0033 232.6342 0004371 340.3664  19.7015 14.38911698430292
ORBCOMM FM30            
1 25980U 99065A   26024.62189645  .00001581  00000+0  56598-3 0  9998
2 25980  45.0301 121.1553 0004563  37.4430 322.6736 14.37872088366312
ORBCOMM FM31            
1 25981U 99065B   26024.67518774  .00001628  00000+0  58242-3 0  9993
2 25981  45.0226 114.3498 0002207  80.9030 279.2068 14.37794731365876
ORBCOMM FM32            
1 25982U 99065C   26024.72862753  .00001645  00000+0  59893-3 0  9991
2 25982  45.0140 132.1530 0004598  69.4400 290.6941 14.36860535366452
